[{"OBJECT_NAME":"STARLINK-30899","OBJECT_ID":"2023-180U","EPOCH":"2026-03-09T09:19:59.434176","MEAN_MOTION":15.27566389,"ECCENTRICITY":0.00012194,"INCLINATION":43.0007,"RA_OF_ASC_NODE":53.9313,"ARG_OF_PERICENTER":272.586,"MEAN_ANOMALY":87.4852,"EPHEMERIS_TYPE":0,"CLASSIFICATION_TYPE":"U","NORAD_CAT_ID":58420,"ELEMENT_SET_NO":999,"REV_AT_EPOCH":12746,"BSTAR":5.6665656e-5,"MEAN_MOTION_DOT":1.297e-5,"MEAN_MOTION_DDOT":0},{"OBJECT_NAME":"TEVEL2-1","OBJECT_ID":"2025-052H","EPOCH":"2026-03-09T15:32:51.927072","MEAN_MOTION":15.30341923,"ECCENTRICITY":0.0004767,"INCLINATION":97.3991,"RA_OF_ASC_NODE":324.7682,"ARG_OF_PERICENTER":104.8919,"MEAN_ANOMALY":255.2849,"EPHEMERIS_TYPE":0,"CLASSIFICATION_TYPE":"U","NORAD_CAT_ID":63217,"ELEMENT_SET_NO":999,"REV_AT_EPOCH":5485,"BSTAR":0.000706,"MEAN_MOTION_DOT":0.00020683,"MEAN_MOTION_DDOT":0}]
